{
  "type": "FeatureCollection",
  "features": [
    {
      "type": "Feature",
      "properties": {
        "norad_id": 30665,
        "name": "FENGYUN 1C DEB",
        "group": "fengyun-1c-debris",
        "lat": -42.34796592050206,
        "lon": -22.402395470385393,
        "alt_km": 897.4020471614431,
        "timestamp": "2025-12-23T05:02:12.308475+00:00",
        "meta_object_name": "FENGYUN 1C DEB",
        "meta_object_id": "1999-025APX",
        "meta_epoch": "2025-12-20T21:16:17.931360",
        "meta_mean_motion": 14.12381178,
        "meta_eccentricity": 0.0067638,
        "meta_inclination": 99.2086,
        "meta_ra_of_asc_node": 326.7083,
        "meta_arg_of_pericenter": 179.169,
        "meta_mean_anomaly": 209.6706,
        "meta_ephemeris_type": 0,
        "meta_classification_type": "U",
        "meta_norad_cat_id": 30665,
        "meta_element_set_no": 999,
        "meta_rev_at_epoch": 96085,
        "meta_bstar": 0.0010029,
        "meta_mean_motion_dot": 1.843e-05,
        "meta_mean_motion_ddot": 0,
        "tle_line1": "1 30665U 99025APX 25354.88631865  .00001843  00000+0  10029-2 0  9998",
        "tle_line2": "2 30665  99.2086 326.7083 0067638 179.1690 209.6706 14.12381178960852"
      },
      "geometry": {
        "type": "Point",
        "coordinates": [
          -22.402395470385393,
          -42.34796592050206
        ]
      }
    },
    {
      "type": "Feature",
      "properties": {
        "norad_id": 30666,
        "name": "FENGYUN 1C DEB",
        "group": "fengyun-1c-debris",
        "lat": 61.269821954856,
        "lon": 176.95638249051365,
        "alt_km": 834.3485563065897,
        "timestamp": "2025-12-23T05:02:12.308485+00:00",
        "meta_object_name": "FENGYUN 1C DEB",
        "meta_object_id": "1999-025APY",
        "meta_epoch": "2025-12-22T17:19:04.168128",
        "meta_mean_motion": 14.02563481,
        "meta_eccentricity": 0.00614066,
        "meta_inclination": 98.8229,
        "meta_ra_of_asc_node": 340.0242,
        "meta_arg_of_pericenter": 116.7308,
        "meta_mean_anomaly": 56.5266,
        "meta_ephemeris_type": 0,
        "meta_classification_type": "U",
        "meta_norad_cat_id": 30666,
        "meta_element_set_no": 999,
        "meta_rev_at_epoch": 96250,
        "meta_bstar": 0.00034728466,
        "meta_mean_motion_dot": 5.02e-06,
        "meta_mean_motion_ddot": 0,
        "tle_line1": "1 30666U 99025APY 25356.72157602  .00000502  00000+0  34728-3 0  9990",
        "tle_line2": "2 30666  98.8229 340.0242 0061406 116.7308  56.5266 14.02563481962505"
      },
      "geometry": {
        "type": "Point",
        "coordinates": [
          176.95638249051365,
          61.269821954856
        ]
      }
    },
    {
      "type": "Feature",
      "properties": {
        "norad_id": 30668,
        "name": "FENGYUN 1C DEB",
        "group": "fengyun-1c-debris",
        "lat": 46.83634736432777,
        "lon": 60.58894769809874,
        "alt_km": 903.6455298541905,
        "timestamp": "2025-12-23T05:02:12.308495+00:00",
        "meta_object_name": "FENGYUN 1C DEB",
        "meta_object_id": "1999-025AQA",
        "meta_epoch": "2025-12-20T10:48:16.155936",
        "meta_mean_motion": 14.12372255,
        "meta_eccentricity": 0.00797132,
        "meta_inclination": 99.1312,
        "meta_ra_of_asc_node": 67.6525,
        "meta_arg_of_pericenter": 224.7194,
        "meta_mean_anomaly": 199.1455,
        "meta_ephemeris_type": 0,
        "meta_classification_type": "U",
        "meta_norad_cat_id": 30668,
        "meta_element_set_no": 999,
        "meta_rev_at_epoch": 96164,
        "meta_bstar": 0.0012545551,
        "meta_mean_motion_dot": 2.337e-05,
        "meta_mean_motion_ddot": 0,
        "tle_line1": "1 30668U 99025AQA 25354.45018699  .00002337  00000+0  12546-2 0  9993",
        "tle_line2": "2 30668  99.1312  67.6525 0079713 224.7194 199.1455 14.12372255961649"
      },
      "geometry": {
        "type": "Point",
        "coordinates": [
          60.58894769809874,
          46.83634736432777
        ]
      }
    },
    {
      "type": "Feature",
      "properties": {
        "norad_id": 30669,
        "name": "FENGYUN 1C DEB",
        "group": "fengyun-1c-debris",
        "lat": 76.40660111255664,
        "lon": 152.27799345462464,
        "alt_km": 817.4086938441369,
        "timestamp": "2025-12-23T05:02:12.308505+00:00",
        "meta_object_name": "FENGYUN 1C DEB",
        "meta_object_id": "1999-025AQB",
        "meta_epoch": "2025-12-21T01:29:58.279776",
        "meta_mean_motion": 14.02754852,
        "meta_eccentricity": 0.01181216,
        "meta_inclination": 98.6354,
        "meta_ra_of_asc_node": 291.3047,
        "meta_arg_of_pericenter": 153.0273,
        "meta_mean_anomaly": 270.3448,
        "meta_ephemeris_type": 0,
        "meta_classification_type": "U",
        "meta_norad_cat_id": 30669,
        "meta_element_set_no": 999,
        "meta_rev_at_epoch": 95570,
        "meta_bstar": 0.0010787169,
        "meta_mean_motion_dot": 1.733e-05,
        "meta_mean_motion_ddot": 0,
        "tle_line1": "1 30669U 99025AQB 25355.06248009  .00001733  00000+0  10787-2 0  9996",
        "tle_line2": "2 30669  98.6354 291.3047 0118121 153.0273 270.3448 14.02754852955704"
      },
      "geometry": {
        "type": "Point",
        "coordinates": [
          152.27799345462464,
          76.40660111255664
        ]
      }
    },
    {
      "type": "Feature",
      "properties": {
        "norad_id": 30670,
        "name": "FENGYUN 1C DEB",
        "group": "fengyun-1c-debris",
        "lat": 21.853431204234035,
        "lon": -135.07272740628497,
        "alt_km": 852.3655428986121,
        "timestamp": "2025-12-23T05:02:12.308517+00:00",
        "meta_object_name": "FENGYUN 1C DEB",
        "meta_object_id": "1999-025AQC",
        "meta_epoch": "2025-12-21T20:20:06.431424",
        "meta_mean_motion": 14.15820847,
        "meta_eccentricity": 0.003959,
        "meta_inclination": 98.7094,
        "meta_ra_of_asc_node": 40.0711,
        "meta_arg_of_pericenter": 44.0879,
        "meta_mean_anomaly": 12.2318,
        "meta_ephemeris_type": 0,
        "meta_classification_type": "U",
        "meta_norad_cat_id": 30670,
        "meta_element_set_no": 999,
        "meta_rev_at_epoch": 97281,
        "meta_bstar": 8.9237632e-05,
        "meta_mean_motion_dot": 1.34e-06,
        "meta_mean_motion_ddot": 0,
        "tle_line1": "1 30670U 99025AQC 25355.84729666  .00000134  00000+0  89238-4 0  9990",
        "tle_line2": "2 30670  98.7094  40.0711 0039590  44.0879  12.2318 14.15820847972810"
      },
      "geometry": {
        "type": "Point",
        "coordinates": [
          -135.07272740628497,
          21.853431204234035
        ]
      }
    },
    {
      "type": "Feature",
      "properties": {
        "norad_id": 30671,
        "name": "FENGYUN 1C DEB",
        "group": "fengyun-1c-debris",
        "lat": 74.06244794217073,
        "lon": 27.154112815014834,
        "alt_km": 873.5316466637241,
        "timestamp": "2025-12-23T05:02:12.308529+00:00",
        "meta_object_name": "FENGYUN 1C DEB",
        "meta_object_id": "1999-025AQD",
        "meta_epoch": "2025-12-22T03:11:08.399040",
        "meta_mean_motion": 13.95491658,
        "meta_eccentricity": 0.01257678,
        "meta_inclination": 99.252,
        "meta_ra_of_asc_node": 60.8783,
        "meta_arg_of_pericenter": 7.5381,
        "meta_mean_anomaly": 59.7634,
        "meta_ephemeris_type": 0,
        "meta_classification_type": "U",
        "meta_norad_cat_id": 30671,
        "meta_element_set_no": 999,
        "meta_rev_at_epoch": 95326,
        "meta_bstar": 0.0012094625,
        "meta_mean_motion_dot": 1.709e-05,
        "meta_mean_motion_ddot": 0,
        "tle_line1": "1 30671U 99025AQD 25356.13273610  .00001709  00000+0  12095-2 0  9991",
        "tle_line2": "2 30671  99.2520  60.8783 0125767   7.5381  59.7634 13.95491658953260"
      },
      "geometry": {
        "type": "Point",
        "coordinates": [
          27.154112815014834,
          74.06244794217073
        ]
      }
    },
    {
      "type": "Feature",
      "properties": {
        "norad_id": 30673,
        "name": "FENGYUN 1C DEB",
        "group": "fengyun-1c-debris",
        "lat": -14.892807153367318,
        "lon": -136.22628668425904,
        "alt_km": 880.2873788979778,
        "timestamp": "2025-12-23T05:02:12.308539+00:00",
        "meta_object_name": "FENGYUN 1C DEB",
        "meta_object_id": "1999-025AQF",
        "meta_epoch": "2025-12-22T19:51:27.694368",
        "meta_mean_motion": 14.03457516,
        "meta_eccentricity": 0.00528222,
        "meta_inclination": 98.9179,
        "meta_ra_of_asc_node": 45.792,
        "meta_arg_of_pericenter": 114.9833,
        "meta_mean_anomaly": 308.0854,
        "meta_ephemeris_type": 0,
        "meta_classification_type": "U",
        "meta_norad_cat_id": 30673,
        "meta_element_set_no": 999,
        "meta_rev_at_epoch": 96673,
        "meta_bstar": 9.242663e-06,
        "meta_mean_motion_dot": -2.8e-07,
        "meta_mean_motion_ddot": 0,
        "tle_line1": "1 30673U 99025AQF 25356.82740387 -.00000028  00000+0  92427-5 0  9993",
        "tle_line2": "2 30673  98.9179  45.7920 0052822 114.9833 308.0854 14.03457516966734"
      },
      "geometry": {
        "type": "Point",
        "coordinates": [
          -136.22628668425904,
          -14.892807153367318
        ]
      }
    }
  ]
}